{
  "type": "FeatureCollection",
  "features": [
    {
      "type": "Feature",
      "properties": {
        "norad_id": 41860,
        "name": "GSAT0212 (GALILEO 16)",
        "group": "galileo",
        "lat": -45.65891537659533,
        "lon": -28.56090133514835,
        "alt_km": 23233.33096119224,
        "timestamp": "2025-12-03T15:48:03.335357+00:00",
        "meta_object_name": "GSAT0212 (GALILEO 16)",
        "meta_object_id": "2016-069B",
        "meta_epoch": "2025-12-02T16:19:30.905184",
        "meta_mean_motion": 1.70474418,
        "meta_eccentricity": 0.00022458,
        "meta_inclination": 55.3738,
        "meta_ra_of_asc_node": 106.5243,
        "meta_arg_of_pericenter": 34.2432,
        "meta_mean_anomaly": 325.7313,
        "meta_ephemeris_type": 0,
        "meta_classification_type": "U",
        "meta_norad_cat_id": 41860,
        "meta_element_set_no": 999,
        "meta_rev_at_epoch": 5630,
        "meta_bstar": 0,
        "meta_mean_motion_dot": 2.7e-07,
        "meta_mean_motion_ddot": 0,
        "tle_line1": "1 41860U 16069B   25336.68021881  .00000027  00000+0  00000+0 0  9991",
        "tle_line2": "2 41860  55.3738 106.5243 0002245  34.2432 325.7313  1.70474418 56308"
      },
      "geometry": {
        "type": "Point",
        "coordinates": [
          -28.56090133514835,
          -45.65891537659533
        ]
      }
    },
    {
      "type": "Feature",
      "properties": {
        "norad_id": 41861,
        "name": "GSAT0213 (GALILEO 17)",
        "group": "galileo",
        "lat": 12.079958845653554,
        "lon": 114.98250978429986,
        "alt_km": 23220.838988321124,
        "timestamp": "2025-12-03T15:48:03.335368+00:00",
        "meta_object_name": "GSAT0213 (GALILEO 17)",
        "meta_object_id": "2016-069C",
        "meta_epoch": "2025-12-01T20:59:28.954752",
        "meta_mean_motion": 1.70474717,
        "meta_eccentricity": 0.00020626,
        "meta_inclination": 55.3756,
        "meta_ra_of_asc_node": 106.5542,
        "meta_arg_of_pericenter": 284.0381,
        "meta_mean_anomaly": 75.9044,
        "meta_ephemeris_type": 0,
        "meta_classification_type": "U",
        "meta_norad_cat_id": 41861,
        "meta_element_set_no": 999,
        "meta_rev_at_epoch": 5615,
        "meta_bstar": 0,
        "meta_mean_motion_dot": 3.5e-07,
        "meta_mean_motion_ddot": 0,
        "tle_line1": "1 41861U 16069C   25335.87464068  .00000035  00000+0  00000+0 0  9999",
        "tle_line2": "2 41861  55.3756 106.5542 0002062 284.0381  75.9044  1.70474717 56156"
      },
      "geometry": {
        "type": "Point",
        "coordinates": [
          114.98250978429986,
          12.079958845653554
        ]
      }
    },
    {
      "type": "Feature",
      "properties": {
        "norad_id": 41862,
        "name": "GSAT0214 (GALILEO 18)",
        "group": "galileo",
        "lat": -52.59114697440278,
        "lon": 41.93237425167619,
        "alt_km": 23224.603710964482,
        "timestamp": "2025-12-03T15:48:03.335377+00:00",
        "meta_object_name": "GSAT0214 (GALILEO 18)",
        "meta_object_id": "2016-069D",
        "meta_epoch": "2025-12-02T14:34:22.700352",
        "meta_mean_motion": 1.70474512,
        "meta_eccentricity": 0.0001109,
        "meta_inclination": 55.3745,
        "meta_ra_of_asc_node": 106.5268,
        "meta_arg_of_pericenter": 291.2976,
        "meta_mean_anomaly": 68.6511,
        "meta_ephemeris_type": 0,
        "meta_classification_type": "U",
        "meta_norad_cat_id": 41862,
        "meta_element_set_no": 999,
        "meta_rev_at_epoch": 5629,
        "meta_bstar": 0,
        "meta_mean_motion_dot": 2.8e-07,
        "meta_mean_motion_ddot": 0,
        "tle_line1": "1 41862U 16069D   25336.60720718  .00000028  00000+0  00000+0 0  9991",
        "tle_line2": "2 41862  55.3745 106.5268 0001109 291.2976  68.6511  1.70474512 56297"
      },
      "geometry": {
        "type": "Point",
        "coordinates": [
          41.93237425167619,
          -52.59114697440278
        ]
      }
    },
    {
      "type": "Feature",
      "properties": {
        "norad_id": 43055,
        "name": "GSAT0215 (GALILEO 19)",
        "group": "galileo",
        "lat": -12.82389401574299,
        "lon": -142.22738031228064,
        "alt_km": 23220.197535004387,
        "timestamp": "2025-12-03T15:48:03.335388+00:00",
        "meta_object_name": "GSAT0215 (GALILEO 19)",
        "meta_object_id": "2017-079A",
        "meta_epoch": "2025-11-29T13:52:03.216864",
        "meta_mean_motion": 1.70473718,
        "meta_eccentricity": 0.0001588,
        "meta_inclination": 55.1353,
        "meta_ra_of_asc_node": 227.0004,
        "meta_arg_of_pericenter": 310.5234,
        "meta_mean_anomaly": 49.536,
        "meta_ephemeris_type": 0,
        "meta_classification_type": "U",
        "meta_norad_cat_id": 43055,
        "meta_element_set_no": 999,
        "meta_rev_at_epoch": 4958,
        "meta_bstar": 0,
        "meta_mean_motion_dot": 2.7e-07,
        "meta_mean_motion_ddot": 0,
        "tle_line1": "1 43055U 17079A   25333.57781501  .00000027  00000+0  00000+0 0  9998",
        "tle_line2": "2 43055  55.1353 227.0004 0001588 310.5234  49.5360  1.70473718 49587"
      },
      "geometry": {
        "type": "Point",
        "coordinates": [
          -142.22738031228064,
          -12.82389401574299
        ]
      }
    },
    {
      "type": "Feature",
      "properties": {
        "norad_id": 43056,
        "name": "GSAT0216 (GALILEO 20)",
        "group": "galileo",
        "lat": 11.825516001972021,
        "lon": 38.5094435220122,
        "alt_km": 23227.641191258546,
        "timestamp": "2025-12-03T15:48:03.335398+00:00",
        "meta_object_name": "GSAT0216 (GALILEO 20)",
        "meta_object_id": "2017-079B",
        "meta_epoch": "2025-12-01T01:00:54.249120",
        "meta_mean_motion": 1.70473856,
        "meta_eccentricity": 0.00027137,
        "meta_inclination": 55.1346,
        "meta_ra_of_asc_node": 226.9601,
        "meta_arg_of_pericenter": 312.5245,
        "meta_mean_anomaly": 47.5297,
        "meta_ephemeris_type": 0,
        "meta_classification_type": "U",
        "meta_norad_cat_id": 43056,
        "meta_element_set_no": 999,
        "meta_rev_at_epoch": 4962,
        "meta_bstar": 0,
        "meta_mean_motion_dot": 3.1e-07,
        "meta_mean_motion_ddot": 0,
        "tle_line1": "1 43056U 17079B   25335.04229455  .00000031  00000+0  00000+0 0  9993",
        "tle_line2": "2 43056  55.1346 226.9601 0002713 312.5245  47.5297  1.70473856 49621"
      },
      "geometry": {
        "type": "Point",
        "coordinates": [
          38.5094435220122,
          11.825516001972021
        ]
      }
    },
    {
      "type": "Feature",
      "properties": {
        "norad_id": 43057,
        "name": "GSAT0217 (GALILEO 21)",
        "group": "galileo",
        "lat": 24.285823140676634,
        "lon": -114.80041618404995,
        "alt_km": 23213.00643279444,
        "timestamp": "2025-12-03T15:48:03.335408+00:00",
        "meta_object_name": "GSAT0217 (GALILEO 21)",
        "meta_object_id": "2017-079C",
        "meta_epoch": "2025-12-02T10:28:08.868000",
        "meta_mean_motion": 1.70473685,
        "meta_eccentricity": 0.00026117,
        "meta_inclination": 55.1312,
        "meta_ra_of_asc_node": 226.9197,
        "meta_arg_of_pericenter": 354.1722,
        "meta_mean_anomaly": 5.9091,
        "meta_ephemeris_type": 0,
        "meta_classification_type": "U",
        "meta_norad_cat_id": 43057,
        "meta_element_set_no": 999,
        "meta_rev_at_epoch": 4963,
        "meta_bstar": 0,
        "meta_mean_motion_dot": 3.7e-07,
        "meta_mean_motion_ddot": 0,
        "tle_line1": "1 43057U 17079C   25336.43621375  .00000037  00000+0  00000+0 0  9991",
        "tle_line2": "2 43057  55.1312 226.9197 0002611 354.1722   5.9091  1.70473685 49635"
      },
      "geometry": {
        "type": "Point",
        "coordinates": [
          -114.80041618404995,
          24.285823140676634
        ]
      }
    },
    {
      "type": "Feature",
      "properties": {
        "norad_id": 43058,
        "name": "GSAT0218 (GALILEO 22)",
        "group": "galileo",
        "lat": -52.4412493818453,
        "lon": 111.76629027487773,
        "alt_km": 23222.212289258467,
        "timestamp": "2025-12-03T15:48:03.335418+00:00",
        "meta_object_name": "GSAT0218 (GALILEO 22)",
        "meta_object_id": "2017-079D",
        "meta_epoch": "2025-11-30T07:26:14.163360",
        "meta_mean_motion": 1.70473798,
        "meta_eccentricity": 0.0002943,
        "meta_inclination": 55.1332,
        "meta_ra_of_asc_node": 226.9759,
        "meta_arg_of_pericenter": 303.6931,
        "meta_mean_anomaly": 56.3534,
        "meta_ephemeris_type": 0,
        "meta_classification_type": "U",
        "meta_norad_cat_id": 43058,
        "meta_element_set_no": 999,
        "meta_rev_at_epoch": 4962,
        "meta_bstar": 0,
        "meta_mean_motion_dot": 2.9e-07,
        "meta_mean_motion_ddot": 0,
        "tle_line1": "1 43058U 17079D   25334.30988615  .00000029  00000+0  00000+0 0  9990",
        "tle_line2": "2 43058  55.1332 226.9759 0002943 303.6931  56.3534  1.70473798 49627"
      },
      "geometry": {
        "type": "Point",
        "coordinates": [
          111.76629027487773,
          -52.4412493818453
        ]
      }
    }
  ]
}